
# Worst residual: 57.02 km
# MJD 57275.000000 (2015 Sep 10  0:00)
Gaia = 2013-074A = NORAD 39479
1 39479U 13074A   15253.49921083  .00000000  00000-0  00000-0 2  5953
2 39479 028.0092 343.6667 4670297 168.8618 195.9382 00.00903598    04

# Worst residual: 58.65 km
# MJD 57276.000000 (2015 Sep 11  0:00)
Gaia = 2013-074A = NORAD 39479
1 39479U 13074A   15254.49921083  .00000000  00000-0  00000-0 2  5954
2 39479 027.7701 343.7021 4634090 170.7223 194.5457 00.00904560    05

# Worst residual: 59.76 km
# MJD 57277.000000 (2015 Sep 12  0:00)
Gaia = 2013-074A = NORAD 39479
1 39479U 13074A   15255.49921083  .00000000  00000-0  00000-0 2  5955
2 39479 027.5143 343.7275 4588843 172.6146 193.1130 00.00904298    04

# Worst residual: 60.36 km
# MJD 57278.000000 (2015 Sep 13  0:00)
Gaia = 2013-074A = NORAD 39479
1 39479U 13074A   15256.49921083  .00000000  00000-0  00000-0 2  5956
2 39479 027.2442 343.7406 4534594 174.5366 191.6603 00.00902776    05

# Worst residual: 60.43 km
# MJD 57279.000000 (2015 Sep 14  0:00)
Gaia = 2013-074A = NORAD 39479
1 39479U 13074A   15257.49921083  .00000000  00000-0  00000-0 2  5957
2 39479 026.9624 343.7396 4471594 176.4865 190.2060 00.00899994    05

# Worst residual: 60.05 km
# MJD 57280.000000 (2015 Sep 15  0:00)
Gaia = 2013-074A = NORAD 39479
1 39479U 13074A   15258.49921083  .00000000  00000-0  00000-0 2  5958
2 39479 026.6722 343.7229 4400321 178.4626 188.7672 00.00895989    04

# Worst residual: 58.52 km
# MJD 57281.000000 (2015 Sep 16  0:00)
Gaia = 2013-074A = NORAD 39479
1 39479U 13074A   15259.49921083  .00000000  00000-0  00000-0 2  5959
2 39479 026.3770 343.6893 4322348 180.4589 187.3701 00.00890911    01

# Worst residual: 57.76 km
# MJD 57282.000000 (2015 Sep 17  0:00)
Gaia = 2013-074A = NORAD 39479
1 39479U 13074A   15260.49921083  .00000000  00000-0  00000-0 2  5951
2 39479 026.0803 343.6381 4241130 182.4580 186.0636 00.00885103    09

# Worst residual: 55.89 km
# MJD 57283.000000 (2015 Sep 18  0:00)
Gaia = 2013-074A = NORAD 39479
1 39479U 13074A   15261.49921083  .00000000  00000-0  00000-0 2  5952
2 39479 025.7848 343.5690 4149949 184.4903 184.7758 00.00877999    06

# Worst residual: 53.56 km
# MJD 57284.000000 (2015 Sep 19  0:00)
Gaia = 2013-074A = NORAD 39479
1 39479U 13074A   15262.49921083  .00000000  00000-0  00000-0 2  5953
2 39479 025.4942 343.4824 4054504 186.5305 183.5722 00.00870147    03

# Worst residual: 50.80 km
# MJD 57285.000000 (2015 Sep 20  0:00)
Gaia = 2013-074A = NORAD 39479
1 39479U 13074A   15263.49921083  .00000000  00000-0  00000-0 2  5954
2 39479 025.2116 343.3793 3956442 188.5677 182.4747 00.00861749    06

# Worst residual: 47.64 km
# MJD 57286.000000 (2015 Sep 21  0:00)
Gaia = 2013-074A = NORAD 39479
1 39479U 13074A   15264.49921083  .00000000  00000-0  00000-0 2  5955
2 39479 024.9401 343.2612 3857865 190.5869 181.5081 00.00853056    06

# Worst residual: 44.13 km
# MJD 57287.000000 (2015 Sep 22  0:00)
Gaia = 2013-074A = NORAD 39479
1 39479U 13074A   15265.49921083  .00000000  00000-0  00000-0 2  5956
2 39479 024.6824 343.1303 3761433 192.5695 180.7006 00.00844371    00

# Worst residual: 40.43 km
# MJD 57288.000000 (2015 Sep 23  0:00)
Gaia = 2013-074A = NORAD 39479
1 39479U 13074A   15266.49921083  .00000000  00000-0  00000-0 2  5957
2 39479 024.4408 342.9893 3670514 194.4939 180.0804 00.00836064    07

# Worst residual: 36.75 km
# MJD 57289.000000 (2015 Sep 24  0:00)
Gaia = 2013-074A = NORAD 39479
1 39479U 13074A   15267.49921083  .00000000  00000-0  00000-0 2  5958
2 39479 024.2171 342.8410 3589279 196.3391 179.6703 00.00828570    01

# Worst residual: 33.42 km
# MJD 57290.000000 (2015 Sep 25  0:00)
Gaia = 2013-074A = NORAD 39479
1 39479U 13074A   15268.49921083  .00000000  00000-0  00000-0 2  5959
2 39479 024.0119 342.6882 3522453 198.0906 179.4789 00.00822366    03

# Worst residual: 30.84 km
# MJD 57291.000000 (2015 Sep 26  0:00)
Gaia = 2013-074A = NORAD 39479
1 39479U 13074A   15269.49921083  .00000000  00000-0  00000-0 2  5950
2 39479 023.8245 342.5330 3474909 199.7477 179.4897 00.00817927    07

# Worst residual: 29.42 km
# MJD 57292.000000 (2015 Sep 27  0:00)
Gaia = 2013-074A = NORAD 39479
1 39479U 13074A   15270.49921083  .00000000  00000-0  00000-0 2  5952
2 39479 023.6528 342.3758 3450834 201.3304 179.6531 00.00815651    00

# Worst residual: 29.55 km
# MJD 57293.000000 (2015 Sep 28  0:00)
Gaia = 2013-074A = NORAD 39479
1 39479U 13074A   15271.49921083  .00000000  00000-0  00000-0 2  5953
2 39479 023.4932 342.2153 3452878 202.8785 179.8888 00.00815783    07

# Worst residual: 31.20 km
# MJD 57294.000000 (2015 Sep 29  0:00)
Gaia = 2013-074A = NORAD 39479
1 39479U 13074A   15272.49921083  .00000000  00000-0  00000-0 2  5954
2 39479 023.3411 342.0483 3481503 204.4433 180.1008 00.00818366    06

# Worst residual: 34.01 km
# MJD 57295.000000 (2015 Sep 30  0:00)
Gaia = 2013-074A = NORAD 39479
1 39479U 13074A   15273.49921083  .00000000  00000-0  00000-0 2  5955
2 39479 023.1916 341.8697 3534907 206.0730 180.2013 00.00823236    02

# Worst residual: 37.56 km
# MJD 57296.000000 (2015 Oct  1  0:00)
Gaia = 2013-074A = NORAD 39479
1 39479U 13074A   15274.49921083  .00000000  00000-0  00000-0 2  5956
2 39479 023.0404 341.6739 3609456 207.7996 180.1288 00.00830051    08

# Worst residual: 41.42 km
# MJD 57297.000000 (2015 Oct  2  0:00)
Gaia = 2013-074A = NORAD 39479
1 39479U 13074A   15275.49921083  .00000000  00000-0  00000-0 2  5957
2 39479 022.8842 341.4552 3700506 209.6361 179.8556 00.00838368    09

# Worst residual: 45.23 km
# MJD 57298.000000 (2015 Oct  3  0:00)
Gaia = 2013-074A = NORAD 39479
1 39479U 13074A   15276.49921083  .00000000  00000-0  00000-0 2  5958
2 39479 022.7208 341.2082 3803256 211.5795 179.3818 00.00847714    00

# Worst residual: 48.75 km
# MJD 57299.000000 (2015 Oct  4  0:00)
Gaia = 2013-074A = NORAD 39479
1 39479U 13074A   15277.49921083  .00000000  00000-0  00000-0 2  5959
2 39479 022.5492 340.9288 3913311 213.6172 178.7255 00.00857641    01

# Worst residual: 51.88 km
# MJD 57300.000000 (2015 Oct  5  0:00)
Gaia = 2013-074A = NORAD 39479
1 39479U 13074A   15278.49921083  .00000000  00000-0  00000-0 2  5950
2 39479 022.3697 340.6139 4026991 215.7337 177.9124 00.00867758    00

# Worst residual: 54.53 km
# MJD 57301.000000 (2015 Oct  6  0:00)
Gaia = 2013-074A = NORAD 39479
1 39479U 13074A   15279.49921083  .00000000  00000-0  00000-0 2  5951
2 39479 022.1828 340.2613 4141325 217.9138 176.9696 00.00877738    01

# Worst residual: 56.71 km
# MJD 57302.000000 (2015 Oct  7  0:00)
Gaia = 2013-074A = NORAD 39479
1 39479U 13074A   15280.49921083  .00000000  00000-0  00000-0 2  5953
2 39479 021.9900 339.8698 4253910 220.1448 175.9220 00.00887306    04

# Worst residual: 58.37 km
# MJD 57303.000000 (2015 Oct  8  0:00)
Gaia = 2013-074A = NORAD 39479
1 39479U 13074A   15281.49921083  .00000000  00000-0  00000-0 2  5954
2 39479 021.7930 339.4391 4362880 222.4163 174.7909 00.00896241    06

# Worst residual: 59.53 km
# MJD 57304.000000 (2015 Oct  9  0:00)
Gaia = 2013-074A = NORAD 39479
1 39479U 13074A   15282.49921083  .00000000  00000-0  00000-0 2  5955
2 39479 021.5936 338.9702 4466660 224.7201 173.5946 00.00904353    01

# Worst residual: 60.18 km
# MJD 57305.000000 (2015 Oct 10  0:00)
Gaia = 2013-074A = NORAD 39479
1 39479U 13074A   15283.49921083  .00000000  00000-0  00000-0 2  5956
2 39479 021.3940 338.4652 4563944 227.0488 172.3494 00.00911486    09

# Worst residual: 60.33 km
# MJD 57306.000000 (2015 Oct 11  0:00)
Gaia = 2013-074A = NORAD 39479
1 39479U 13074A   15284.49921083  .00000000  00000-0  00000-0 2  5957
2 39479 021.1966 337.9272 4653644 229.3958 171.0706 00.00917514    01

# Worst residual: 60.00 km
# MJD 57307.000000 (2015 Oct 12  0:00)
Gaia = 2013-074A = NORAD 39479
1 39479U 13074A   15285.49921083  .00000000  00000-0  00000-0 2  5958
2 39479 021.0038 337.3610 4734885 231.7536 169.7733 00.00922339    01

# Worst residual: 59.16 km
# MJD 57308.000000 (2015 Oct 13  0:00)
Gaia = 2013-074A = NORAD 39479
1 39479U 13074A   15286.49921083  .00000000  00000-0  00000-0 2  5959
2 39479 020.8180 336.7730 4806996 234.1137 168.4736 00.00925898    01

# Worst residual: 57.78 km
# MJD 57309.000000 (2015 Oct 14  0:00)
Gaia = 2013-074A = NORAD 39479
1 39479U 13074A   15287.49921083  .00000000  00000-0  00000-0 2  5950
2 39479 020.6413 336.1702 4869542 236.4667 167.1889 00.00928164    04

# Worst residual: 55.92 km
# MJD 57310.000000 (2015 Oct 15  0:00)
Gaia = 2013-074A = NORAD 39479
1 39479U 13074A   15288.49921083  .00000000  00000-0  00000-0 2  5951
2 39479 020.4760 335.5616 4922350 238.8009 165.9380 00.00929150    05

# Worst residual: 53.61 km
# MJD 57311.000000 (2015 Oct 16  0:00)
Gaia = 2013-074A = NORAD 39479
1 39479U 13074A   15289.49921083  .00000000  00000-0  00000-0 2  5952
2 39479 020.3236 334.9563 4965489 241.1036 164.7416 00.00928909    01

# Worst residual: 50.89 km
# MJD 57312.000000 (2015 Oct 17  0:00)
Gaia = 2013-074A = NORAD 39479
1 39479U 13074A   15290.49921083  .00000000  00000-0  00000-0 2  5954
2 39479 020.1855 334.3641 4999319 243.3601 163.6228 00.00927537    03

# Worst residual: 47.82 km
# MJD 57313.000000 (2015 Oct 18  0:00)
Gaia = 2013-074A = NORAD 39479
1 39479U 13074A   15291.49921083  .00000000  00000-0  00000-0 2  5955
2 39479 020.0624 333.7945 5024497 245.5543 162.6070 00.00925173    00

# Worst residual: 44.47 km
# MJD 57314.000000 (2015 Oct 19  0:00)
Gaia = 2013-074A = NORAD 39479
1 39479U 13074A   15292.49921083  .00000000  00000-0  00000-0 2  5956
2 39479 019.9547 333.2562 5042032 247.6687 161.7229 00.00922003    03

# Worst residual: 40.99 km
# MJD 57315.000000 (2015 Oct 20  0:00)
Gaia = 2013-074A = NORAD 39479
1 39479U 13074A   15293.49921083  .00000000  00000-0  00000-0 2  5957
2 39479 019.8621 332.7563 5053383 249.6845 161.0022 00.00918268    01

# Worst residual: 37.48 km
# MJD 57316.000000 (2015 Oct 21  0:00)
Gaia = 2013-074A = NORAD 39479
1 39479U 13074A   15294.49921083  .00000000  00000-0  00000-0 2  5958
2 39479 019.7839 332.3000 5060575 251.5822 160.4791 00.00914266    01
